{"type":"FeatureCollection", "features": [
{"type":"Feature","geometry":{"type":"Polygon","coordinates":[[[-74.63282998431629,-13.344779980711508],[-74.699459983991,-13.36350998110072],[-74.76386323440073,-13.341392605983913],[-74.86874998382467,-13.359899980999273],[-74.89771998428978,-13.395309980770946],[-74.90209998392709,-13.466439981120175],[-74.86217998391908,-13.481789981222619],[-74.82955998420584,-13.534299980859373],[-74.782419983995,-13.578509980850868],[-74.70948998427531,-13.585159980848402],[-74.62716998410747,-13.556749981026769],[-74.59912998426131,-13.577959980668538],[-74.51763998369825,-13.603009981125695],[-74.4437499837747,-13.585529980823935],[-74.36838998441021,-13.602799981334044],[-74.3013284837225,-13.632719105602177],[-74.13948010941948,-13.63293935586654],[-74.05007085788372,-13.682645605710093],[-74.03932223273483,-13.604837855882295],[-74.0637299841514,-13.574479981166178],[-74.05563014391595,-13.535739968124972],[-74.1259099836588,-13.528789981272553],[-74.16012885925943,-13.497011730806662],[-74.17208598438066,-13.453742356024861],[-74.21291010881441,-13.413748106190098],[-74.26213003767106,-13.396350017938914],[-74.3360085172792,-13.43874949739137],[-74.38272998380165,-13.431879980976305],[-74.47574998367475,-13.453139981125162],[-74.57168035876151,-13.387120105808208],[-74.56683998357835,-13.34177998086136],[-74.63282998431629,-13.344779980711508]]]},"properties":{"NOMBDEP":"AYACUCHO","NOMBPROV":"CANGALLO","CAPITAL":"CANGALLO"}},
{"type":"Feature","geometry":{"type":"Polygon","coordinates":[[[-73.80704548306255,-13.314831605993788],[-73.8581064833275,-13.309351480986038],[-73.87026160768698,-13.261571980962117],[-73.93053560833164,-13.283402856356702],[-73.97030535770608,-13.1734091061453],[-74.05812835803727,-13.062704106409342],[-74.08181555644273,-12.986146629163557],[-74.11868998435523,-13.006599980604562],[-74.18888058257278,-13.050822939826787],[-74.28026342331827,-13.001999367376868],[-74.27157003772703,-13.068630019959414],[-74.34587635900675,-13.025844606343469],[-74.38622998422636,-13.029309981070696],[-74.40800998407349,-13.069269981124705],[-74.42042573376057,-13.15953910594493],[-74.45843885896613,-13.190038105873839],[-74.54447260862395,-13.199394480670719],[-74.57098148390833,-13.184670480658099],[-74.64465423370586,-13.274136731225099],[-74.68605648371971,-13.286370980636207],[-74.66762860877321,-13.326621855614121],[-74.63282998431629,-13.344779980711508],[-74.56683998357835,-13.34177998086136],[-74.57168035876151,-13.387120105808208],[-74.47574998367475,-13.453139981125162],[-74.38272998380165,-13.431879980976305],[-74.3360085172792,-13.43874949739137],[-74.26213003767106,-13.396350017938914],[-74.21291010881441,-13.413748106190098],[-74.17208598438066,-13.453742356024861],[-74.16012885925943,-13.497011730806662],[-74.1259099836588,-13.528789981272553],[-74.05563014391595,-13.535739968124972],[-74.08047003756212,-13.450580019552206],[-73.99251332692847,-13.44133463728366],[-73.97753196612729,-13.495176748707934],[-73.92608201537269,-13.49936321603957],[-73.86503019198972,-13.46522964473229],[-73.83479906322617,-13.47017582875145],[-73.83500548281671,-13.469546356379169],[-73.84696098286304,-13.397432605630172],[-73.80704548306255,-13.314831605993788]]]},"properties":{"NOMBDEP":"AYACUCHO","NOMBPROV":"HUAMANGA","CAPITAL":"AYACUCHO"}},
{"type":"Feature","geometry":{"type":"Polygon","coordinates":[[[-74.11604298369673,-14.028872982302232],[-74.10097860917546,-13.95254010714018],[-74.11213998357334,-13.898449981581336],[-74.15836060865513,-13.86797948206737],[-74.15976473365549,-13.841370356656569],[-74.24090673435825,-13.783445856441062],[-74.25405660872548,-13.758994605716452],[-74.31388823375494,-13.740335355891887],[-74.4258699839126,-13.79755998120811],[-74.52607998440374,-13.715339981155182],[-74.6166599841709,-13.70775998143796],[-74.64128998414543,-13.742269981074742],[-74.70727998398405,-13.745259981363006],[-74.76652535895812,-13.772234355630985],[-74.7603637339991,-13.831487231850247],[-74.78592310866452,-13.92878835719688],[-74.76795473422357,-13.97855235700564],[-74.78388285900672,-14.01694535674278],[-74.7725293588428,-14.090318357106469],[-74.72572435879209,-14.117035732113322],[-74.69834835898956,-14.07862210732435],[-74.64055223429813,-14.094454732200063],[-74.62319998359231,-14.137139982024507],[-74.43127998428383,-14.149299981608806],[-74.39231998358036,-14.167049981771186],[-74.32944873367211,-14.128629356659417],[-74.20797598380454,-14.12689935691975],[-74.17442985865102,-14.104710857120324],[-74.11604298369673,-14.028872982302232]]]},"properties":{"NOMBDEP":"AYACUCHO","NOMBPROV":"HUANCA SANCOS","CAPITAL":"HUANCA SANCOS"}},
{"type":"Feature","geometry":{"type":"Polygon","coordinates":[[[-73.98045160795533,-12.242588354868644],[-73.98879710790015,-12.27398697991515],[-74.03776373280999,-12.262297604550781],[-74.09835723379928,-12.284913605178701],[-74.1214394843447,-12.333601479824381],[-74.18761823389434,-12.314375979967451],[-74.27051573371409,-12.239144730245073],[-74.32187298415084,-12.229777104929383],[-74.3459456086029,-12.17373673026583],[-74.38885998410097,-12.192669980135406],[-74.37626998357285,-12.23012998001451],[-74.40797998358931,-12.292069980145413],[-74.47637110943913,-12.272767605340675],[-74.50628710856319,-12.31218360458962],[-74.55211723362339,-12.287339854650497],[-74.58117698373076,-12.332669355006658],[-74.57598998375073,-12.373169979810655],[-74.54842998355684,-12.375139979826145],[-74.50353998368325,-12.449809979746703],[-74.42244998357984,-12.445209979856656],[-74.41511998370027,-12.49065998037372],[-74.34081998375518,-12.634459980143902],[-74.32752998422137,-12.681269980425213],[-74.34876998434726,-12.712429980259344],[-74.28919998379217,-12.758009981375494],[-74.29239998387214,-12.824759981188151],[-74.32361998377519,-12.832509980651025],[-74.31944998392959,-12.887279981086238],[-74.32767285861547,-12.928390856153044],[-74.28026342331827,-13.001999367376868],[-74.18888058257278,-13.050822939826787],[-74.11868998435523,-13.006599980604562],[-74.10480510936827,-12.98468210569456],[-74.11746448359901,-12.926141855861886],[-74.14307223369661,-12.887245981316937],[-74.10807585911357,-12.852030480622147],[-74.07063260910758,-12.875192106230656],[-74.0038564830902,-12.8437904810458],[-73.98808998266651,-12.74986998101474],[-73.88810998288938,-12.711049979572863],[-73.8537999825831,-12.645469979755717],[-73.83093473305144,-12.530784104902466],[-73.88679248328646,-12.405396980286355],[-73.96585898270587,-12.336451354946007],[-73.98045160795533,-12.242588354868644]]]},"properties":{"NOMBDEP":"AYACUCHO","NOMBPROV":"HUANTA","CAPITAL":"HUANTA"}},
{"type":"Feature","geometry":{"type":"Polygon","coordinates":[[[-73.21187560807283,-13.419064730852597],[-73.28735385839383,-13.371942980584038],[-73.34836285785957,-13.29824060621894],[-73.42190960814185,-13.132394606026196],[-73.4488393580499,-13.1078736056823],[-73.4779668576843,-13.03225873125541],[-73.5216619832139,-12.990687730654201],[-73.510684608308,-12.955425481400823],[-73.52367648258354,-12.89947810563001],[-73.59080935796544,-12.844288605634574],[-73.62566723335607,-12.764992481417835],[-73.6983282332613,-12.672134105004886],[-73.76455698331807,-12.647839980230856],[-73.80117298294675,-12.613024229984205],[-73.83093473305144,-12.530784104902466],[-73.8537999825831,-12.645469979755717],[-73.88810998288938,-12.711049979572863],[-73.98808998266651,-12.74986998101474],[-74.0038564830902,-12.8437904810458],[-74.07063260910758,-12.875192106230656],[-74.10807585911357,-12.852030480622147],[-74.14307223369661,-12.887245981316937],[-74.11746448359901,-12.926141855861886],[-74.10480510936827,-12.98468210569456],[-74.11868998435523,-13.006599980604562],[-74.08181555644273,-12.986146629163557],[-74.05812835803727,-13.062704106409342],[-73.97030535770608,-13.1734091061453],[-73.93053560833164,-13.283402856356702],[-73.87026160768698,-13.261571980962117],[-73.8581064833275,-13.309351480986038],[-73.80704548306255,-13.314831605993788],[-73.82282023296733,-13.285052105969896],[-73.79702998344692,-13.199939980645524],[-73.7564396081014,-13.170714856005759],[-73.72622098261223,-13.268659856367208],[-73.64194998330504,-13.299479980816443],[-73.49850998304925,-13.392899981149185],[-73.48090998260955,-13.431369980839918],[-73.44538985815541,-13.430359981028232],[-73.40332335808648,-13.444750605955676],[-73.34716335830228,-13.434832231322389],[-73.233903232648,-13.476586981404012],[-73.21187560807283,-13.419064730852597]]]},"properties":{"NOMBDEP":"AYACUCHO","NOMBPROV":"LA MAR","CAPITAL":"SAN MIGUEL"}},
{"type":"Feature","geometry":{"type":"Polygon","coordinates":[[[-73.95003323314717,-14.185728356578352],[-73.99915998324661,-14.159189981732197],[-74.03916898286224,-14.09849985668302],[-74.08546060941956,-14.088808981749082],[-74.0679211090719,-14.028066106965241],[-74.11604298369673,-14.028872982302232],[-74.17442985865102,-14.104710857120324],[-74.20797598380454,-14.12689935691975],[-74.32944873367211,-14.128629356659417],[-74.39231998358036,-14.167049981771186],[-74.43127998428383,-14.149299981608806],[-74.62319998359231,-14.137139982024507],[-74.64055223429813,-14.094454732200063],[-74.69834835898956,-14.07862210732435],[-74.72572435879209,-14.117035732113322],[-74.7725293588428,-14.090318357106469],[-74.8413847336185,-14.073402356733311],[-74.94236135938917,-14.094687482141524],[-75.02912998376172,-14.071949982205865],[-75.05904998396954,-14.129619982376255],[-75.09078998357086,-14.215179981770689],[-75.0399791090486,-14.277879356846768],[-75.09392685933705,-14.312424482204051],[-75.13804898477281,-14.414655732376104],[-75.10126648376115,-14.43319910725296],[-75.09813773426896,-14.485097231551947],[-75.06909735915576,-14.526934356835056],[-75.08009010887139,-14.569009982324758],[-75.05990035861464,-14.622617607216739],[-74.95891973355884,-14.606451232238555],[-74.89541785924678,-14.545080482278365],[-74.85277248356323,-14.61180910700466],[-74.79593298392001,-14.615706106851292],[-74.84658135904243,-14.666147232308901],[-74.8457421090111,-14.707979482367193],[-74.80269998391708,-14.752149982335766],[-74.75600710864109,-14.771130856703621],[-74.7505999843018,-14.842249981551333],[-74.69384035884542,-14.83815523157864],[-74.66345098357601,-14.907934482590235],[-74.68548423430991,-14.929469857847607],[-74.65938523404128,-14.970336108324716],[-74.66426698433384,-15.04469648335595],[-74.76229448400318,-15.098059982781933],[-74.71860498373297,-15.135662982960241],[-74.60596998402752,-15.148499983187605],[-74.55252073424447,-15.139941233301215],[-74.4514213591084,-15.175972732955188],[-74.39871973372868,-15.181463233441434],[-74.38787835879918,-15.251779608142328],[-74.40946198358364,-15.308493608293361],[-74.30971848392085,-15.358937232966866],[-74.32843135941965,-15.390993732774518],[-74.30012360891737,-15.478394608424367],[-74.24117573417277,-15.48103910806833],[-74.25637998384911,-15.402099983227572],[-74.20114685864058,-15.321048858118274],[-74.22417085919773,-15.236050482643634],[-74.17997998418889,-15.223339982853872],[-74.11211998355037,-15.239449982930296],[-74.06498998380067,-15.22593998314369],[-74.01459998300277,-15.175309982969281],[-73.92451998291085,-15.131309982769437],[-73.84128998304624,-15.133339982853897],[-73.79547998301479,-15.072279982834914],[-73.84246473326078,-14.921144232919971],[-73.8975599834065,-14.857079981955565],[-73.89365998342146,-14.811039982109435],[-73.8257186076276,-14.725922981560302],[-73.82703535809526,-14.65889410737708],[-73.81030560821722,-14.638494607340192],[-73.71640823335326,-14.641244107329669],[-73.63469385823493,-14.590901731929364],[-73.60499048312425,-14.54164748224548],[-73.53246223304558,-14.507242232043325],[-73.581749983375,-14.41613473223208],[-73.69528898339985,-14.326589981642314],[-73.73825623273893,-14.338163857076324],[-73.7988282327367,-14.293944606658215],[-73.89658398336411,-14.262831982210173],[-73.87925460781383,-14.216695482410557],[-73.95003323314717,-14.185728356578352]]]},"properties":{"NOMBDEP":"AYACUCHO","NOMBPROV":"LUCANAS","CAPITAL":"PUQUIO"}},
{"type":"Feature","geometry":{"type":"Polygon","coordinates":[[[-73.50701173300502,-14.544308606756772],[-73.53246223304558,-14.507242232043325],[-73.60499048312425,-14.54164748224548],[-73.63469385823493,-14.590901731929364],[-73.71640823335326,-14.641244107329669],[-73.81030560821722,-14.638494607340192],[-73.82703535809526,-14.65889410737708],[-73.8257186076276,-14.725922981560302],[-73.89365998342146,-14.811039982109435],[-73.8975599834065,-14.857079981955565],[-73.84246473326078,-14.921144232919971],[-73.79547998301479,-15.072279982834914],[-73.84128998304624,-15.133339982853897],[-73.92451998291085,-15.131309982769437],[-74.01459998300277,-15.175309982969281],[-74.06498998380067,-15.22593998314369],[-74.11211998355037,-15.239449982930296],[-74.17997998418889,-15.223339982853872],[-74.22417085919773,-15.236050482643634],[-74.20114685864058,-15.321048858118274],[-74.25637998384911,-15.402099983227572],[-74.24117573417277,-15.48103910806833],[-74.16647335865855,-15.483957232740067],[-74.15126035857867,-15.42875098287152],[-74.09452060903885,-15.392003107557343],[-74.05373385773129,-15.417725607550722],[-74.03729248266188,-15.456077608095086],[-74.08493035924863,-15.591535608081813],[-74.06864923437462,-15.62988660768076],[-74.01939385784021,-15.599172482723873],[-74.00942998290736,-15.568044607572517],[-73.94596098331272,-15.49040310821681],[-73.86827085761394,-15.426130233423464],[-73.87486273262897,-15.355065358379534],[-73.86005398320475,-15.326117483035375],[-73.80799098259774,-15.324274982604322],[-73.7588653584495,-15.385265358009804],[-73.68436435822849,-15.437483607682282],[-73.65161135777788,-15.416278858282624],[-73.55740360799007,-15.40861148313337],[-73.44110210827563,-15.3557237331637],[-73.4485371076014,-15.318898607884421],[-73.50211660799505,-15.272873482824934],[-73.53823998328858,-15.205919982621083],[-73.55399998341244,-15.148889983186109],[-73.53216998305822,-15.053719983090673],[-73.42038435795172,-15.064880608353349],[-73.33163998329854,-15.029619983275552],[-73.34244998268053,-15.003549983444941],[-73.26264035816598,-14.96569548335981],[-73.25420373261613,-14.899527358400803],[-73.16442335785166,-14.912242983426893],[-73.09460598277985,-14.843324231627946],[-73.06118748311582,-14.825529357094126],[-73.01420598301968,-14.85570810664376],[-73.00278473332872,-14.814986232428623],[-72.94272610682435,-14.765414356587257],[-72.84682460716982,-14.759823856885419],[-72.8656369818612,-14.710684107085854],[-72.99848885807432,-14.662468606740788],[-73.01740035784019,-14.630714857404712],[-73.10648898308006,-14.690654232007148],[-73.1532373582175,-14.674345106741214],[-73.19041160840897,-14.705774732317991],[-73.2561102333006,-14.70901023223638],[-73.2799501078112,-14.73163198223017],[-73.35080660813844,-14.704029356869285],[-73.39040310761726,-14.716061606857636],[-73.40454885794338,-14.76549623176561],[-73.43713235777204,-14.784246357183576],[-73.48502998284738,-14.842569981919098],[-73.5652801078906,-14.775829981668267],[-73.57109898323148,-14.687271606599325],[-73.51006098332766,-14.650100731563441],[-73.5333788580478,-14.58102148225555],[-73.50701173300502,-14.544308606756772]],[[-73.72013110826401,-15.259031107999192],[-73.64010448273564,-15.291993108195356],[-73.68490385792666,-15.334224982796684],[-73.72322685803306,-15.321027358026129],[-73.74646060837034,-15.284930108037997],[-73.72013110826401,-15.259031107999192]]]},"properties":{"NOMBDEP":"AYACUCHO","NOMBPROV":"PARINACOCHAS","CAPITAL":"CORACORA"}},
{"type":"Feature","geometry":{"type":"Polygon","coordinates":[[[-73.01420598301968,-14.85570810664376],[-73.06118748311582,-14.825529357094126],[-73.09460598277985,-14.843324231627946],[-73.16442335785166,-14.912242983426893],[-73.25420373261613,-14.899527358400803],[-73.26264035816598,-14.96569548335981],[-73.34244998268053,-15.003549983444941],[-73.33163998329854,-15.029619983275552],[-73.42038435795172,-15.064880608353349],[-73.53216998305822,-15.053719983090673],[-73.55399998341244,-15.148889983186109],[-73.53823998328858,-15.205919982621083],[-73.50211660799505,-15.272873482824934],[-73.4485371076014,-15.318898607884421],[-73.44110210827563,-15.3557237331637],[-73.39216610797945,-15.398736982825426],[-73.33628085827496,-15.405148482616312],[-73.27479910769262,-15.392956483354965],[-73.29061998292582,-15.3713199829308],[-73.284919982671,-15.294939983293546],[-73.24593348344348,-15.286091857653048],[-73.17454523287614,-15.306607232637646],[-73.1168366077232,-15.222851607815414],[-73.11074823344416,-15.18610673263953],[-73.0475616083815,-15.134347857567548],[-73.00424198308099,-15.064126982773985],[-73.00534823283465,-15.00931648316913],[-72.98665623239918,-14.956103357583856],[-73.0314636079591,-14.90005110827201],[-73.01420598301968,-14.85570810664376]]]},"properties":{"NOMBDEP":"AYACUCHO","NOMBPROV":"PAUCAR DEL SARA SARA","CAPITAL":"PAUSA"}},
{"type":"Feature","geometry":{"type":"Polygon","coordinates":[[[-73.581749983375,-14.41613473223208],[-73.53383548342077,-14.35429410718723],[-73.51224998265053,-14.268159982397208],[-73.61109998337747,-14.088719982141413],[-73.61831998268104,-14.026129981713211],[-73.65646998290333,-13.929949981806146],[-73.67914998288535,-13.9163199818816],[-73.69777935813084,-13.847415981662152],[-73.72868998315619,-13.816119980952294],[-73.7478877326327,-13.763366105861053],[-73.80332273315759,-13.796138981328852],[-73.80451948258803,-13.864484356867536],[-73.8260496076033,-13.914539856629062],[-73.86305360803755,-13.937678982099271],[-73.91201998293582,-14.119629982137894],[-73.96601323262456,-14.137040481932672],[-73.95003323314717,-14.185728356578352],[-73.87925460781383,-14.216695482410557],[-73.89658398336411,-14.262831982210173],[-73.7988282327367,-14.293944606658215],[-73.73825623273893,-14.338163857076324],[-73.69528898339985,-14.326589981642314],[-73.581749983375,-14.41613473223208]]]},"properties":{"NOMBDEP":"AYACUCHO","NOMBPROV":"SUCRE","CAPITAL":"QUEROBAMBA"}},
{"type":"Feature","geometry":{"type":"Polygon","coordinates":[[[-74.05007085788372,-13.682645605710093],[-74.13948010941948,-13.63293935586654],[-74.3013284837225,-13.632719105602177],[-74.36838998441021,-13.602799981334044],[-74.4437499837747,-13.585529980823935],[-74.51763998369825,-13.603009981125695],[-74.59912998426131,-13.577959980668538],[-74.62716998410747,-13.556749981026769],[-74.70948998427531,-13.585159980848402],[-74.782419983995,-13.578509980850868],[-74.76652535895812,-13.772234355630985],[-74.70727998398405,-13.745259981363006],[-74.64128998414543,-13.742269981074742],[-74.6166599841709,-13.70775998143796],[-74.52607998440374,-13.715339981155182],[-74.4258699839126,-13.79755998120811],[-74.31388823375494,-13.740335355891887],[-74.25405660872548,-13.758994605716452],[-74.24090673435825,-13.783445856441062],[-74.15976473365549,-13.841370356656569],[-74.15836060865513,-13.86797948206737],[-74.11213998357334,-13.898449981581336],[-74.10097860917546,-13.95254010714018],[-74.11604298369673,-14.028872982302232],[-74.0679211090719,-14.028066106965241],[-74.08546060941956,-14.088808981749082],[-74.03916898286224,-14.09849985668302],[-73.99915998324661,-14.159189981732197],[-73.95003323314717,-14.185728356578352],[-73.96601323262456,-14.137040481932672],[-73.91201998293582,-14.119629982137894],[-73.86305360803755,-13.937678982099271],[-73.88508023256662,-13.916501357151844],[-73.91181610842665,-13.828455607340345],[-73.95824235809829,-13.788363855707303],[-74.00397260804937,-13.697832356378115],[-74.05007085788372,-13.682645605710093]]]},"properties":{"NOMBDEP":"AYACUCHO","NOMBPROV":"VICTOR FAJARDO","CAPITAL":"HUANCAPI"}},
{"type":"Feature","geometry":{"type":"Polygon","coordinates":[[[-73.83479906322617,-13.47017582875145],[-73.86503019198972,-13.46522964473229],[-73.92608201537269,-13.49936321603957],[-73.97753196612729,-13.495176748707934],[-73.99251332692847,-13.44133463728366],[-74.08047003756212,-13.450580019552206],[-74.05563014391595,-13.535739968124972],[-74.0637299841514,-13.574479981166178],[-74.03932223273483,-13.604837855882295],[-74.05007085788372,-13.682645605710093],[-74.00397260804937,-13.697832356378115],[-73.95824235809829,-13.788363855707303],[-73.91181610842665,-13.828455607340345],[-73.88508023256662,-13.916501357151844],[-73.86305360803755,-13.937678982099271],[-73.8260496076033,-13.914539856629062],[-73.80451948258803,-13.864484356867536],[-73.80332273315759,-13.796138981328852],[-73.7478877326327,-13.763366105861053],[-73.67371348309075,-13.730739355836533],[-73.74361973276444,-13.65556248092372],[-73.79192085756148,-13.640959606100921],[-73.81424373316173,-13.509212481370866],[-73.83474110821555,-13.47035248078231],[-73.83479906322617,-13.47017582875145]]]},"properties":{"NOMBDEP":"AYACUCHO","NOMBPROV":"VILCAS HUAMAN","CAPITAL":"VILCAS HUAMAN"}}
]}